{
  "type": "FeatureCollection",
  "features": [
    {
      "type": "Feature",
      "properties": {
        "norad_id": 33886,
        "name": "IRIDIUM 33 DEB",
        "group": "iridium-33-debris",
        "lat": -79.54385039801632,
        "lon": -92.27269637530071,
        "alt_km": 770.5371730245897,
        "timestamp": "2025-12-11T15:53:39.928270+00:00",
        "meta_object_name": "IRIDIUM 33 DEB",
        "meta_object_id": "1997-051BF",
        "meta_epoch": "2025-12-11T06:35:52.228320",
        "meta_mean_motion": 14.36049785,
        "meta_eccentricity": 0.00122162,
        "meta_inclination": 86.3829,
        "meta_ra_of_asc_node": 67.8453,
        "meta_arg_of_pericenter": 247.5177,
        "meta_mean_anomaly": 171.3235,
        "meta_ephemeris_type": 0,
        "meta_classification_type": "U",
        "meta_norad_cat_id": 33886,
        "meta_element_set_no": 999,
        "meta_rev_at_epoch": 88031,
        "meta_bstar": 0.00033770885,
        "meta_mean_motion_dot": 1.002e-05,
        "meta_mean_motion_ddot": 0,
        "tle_line1": "1 33886U 97051BF  25345.27491005  .00001002  00000+0  33771-3 0  9993",
        "tle_line2": "2 33886  86.3829  67.8453 0012216 247.5177 171.3235 14.36049785880313"
      },
      "geometry": {
        "type": "Point",
        "coordinates": [
          -92.27269637530071,
          -79.54385039801632
        ]
      }
    },
    {
      "type": "Feature",
      "properties": {
        "norad_id": 33887,
        "name": "IRIDIUM 33 DEB",
        "group": "iridium-33-debris",
        "lat": -11.912468151085152,
        "lon": -175.36200705565514,
        "alt_km": 769.818932843159,
        "timestamp": "2025-12-11T15:53:39.928280+00:00",
        "meta_object_name": "IRIDIUM 33 DEB",
        "meta_object_id": "1997-051BG",
        "meta_epoch": "2025-12-11T01:55:48.688896",
        "meta_mean_motion": 14.37218579,
        "meta_eccentricity": 0.0004312,
        "meta_inclination": 86.3045,
        "meta_ra_of_asc_node": 4.1074,
        "meta_arg_of_pericenter": 234.0797,
        "meta_mean_anomaly": 189.2272,
        "meta_ephemeris_type": 0,
        "meta_classification_type": "U",
        "meta_norad_cat_id": 33887,
        "meta_element_set_no": 999,
        "meta_rev_at_epoch": 88141,
        "meta_bstar": 0.00021085031,
        "meta_mean_motion_dot": 6.47e-06,
        "meta_mean_motion_ddot": 0,
        "tle_line1": "1 33887U 97051BG  25345.08042464  .00000647  00000+0  21085-3 0  9993",
        "tle_line2": "2 33887  86.3045   4.1074 0004312 234.0797 189.2272 14.37218579881415"
      },
      "geometry": {
        "type": "Point",
        "coordinates": [
          -175.36200705565514,
          -11.912468151085152
        ]
      }
    },
    {
      "type": "Feature",
      "properties": {
        "norad_id": 33953,
        "name": "IRIDIUM 33 DEB",
        "group": "iridium-33-debris",
        "lat": -22.96398871052174,
        "lon": 52.71132544905189,
        "alt_km": 722.0601575516957,
        "timestamp": "2025-12-11T15:53:39.928291+00:00",
        "meta_object_name": "IRIDIUM 33 DEB",
        "meta_object_id": "1997-051BN",
        "meta_epoch": "2025-12-11T06:24:40.427712",
        "meta_mean_motion": 14.5530364,
        "meta_eccentricity": 0.00184191,
        "meta_inclination": 86.3841,
        "meta_ra_of_asc_node": 54.4182,
        "meta_arg_of_pericenter": 107.3103,
        "meta_mean_anomaly": 321.1465,
        "meta_ephemeris_type": 0,
        "meta_classification_type": "U",
        "meta_norad_cat_id": 33953,
        "meta_element_set_no": 999,
        "meta_rev_at_epoch": 88282,
        "meta_bstar": 0.0022622575,
        "meta_mean_motion_dot": 9.851e-05,
        "meta_mean_motion_ddot": 0,
        "tle_line1": "1 33953U 97051BN  25345.26713458  .00009851  00000+0  22623-2 0  9999",
        "tle_line2": "2 33953  86.3841  54.4182 0018419 107.3103 321.1465 14.55303640882828"
      },
      "geometry": {
        "type": "Point",
        "coordinates": [
          52.71132544905189,
          -22.96398871052174
        ]
      }
    },
    {
      "type": "Feature",
      "properties": {
        "norad_id": 33960,
        "name": "IRIDIUM 33 DEB",
        "group": "iridium-33-debris",
        "lat": 25.72325596751791,
        "lon": -68.16830436219882,
        "alt_km": 608.3782445429097,
        "timestamp": "2025-12-11T15:53:39.928301+00:00",
        "meta_object_name": "IRIDIUM 33 DEB",
        "meta_object_id": "1997-051BV",
        "meta_epoch": "2025-12-11T06:38:47.476896",
        "meta_mean_motion": 14.85069829,
        "meta_eccentricity": 0.00074311,
        "meta_inclination": 86.2531,
        "meta_ra_of_asc_node": 290.2041,
        "meta_arg_of_pericenter": 64.6127,
        "meta_mean_anomaly": 62.5918,
        "meta_ephemeris_type": 0,
        "meta_classification_type": "U",
        "meta_norad_cat_id": 33960,
        "meta_element_set_no": 999,
        "meta_rev_at_epoch": 88845,
        "meta_bstar": 0.0063978217,
        "meta_mean_motion_dot": 0.00055065,
        "meta_mean_motion_ddot": 0,
        "tle_line1": "1 33960U 97051BV  25345.27693839  .00055065  00000+0  63978-2 0  9994",
        "tle_line2": "2 33960  86.2531 290.2041 0007431  64.6127  62.5918 14.85069829888453"
      },
      "geometry": {
        "type": "Point",
        "coordinates": [
          -68.16830436219882,
          25.72325596751791
        ]
      }
    },
    {
      "type": "Feature",
      "properties": {
        "norad_id": 33966,
        "name": "IRIDIUM 33 DEB",
        "group": "iridium-33-debris",
        "lat": 54.373223868330754,
        "lon": -138.5613155546018,
        "alt_km": 719.8855979229793,
        "timestamp": "2025-12-11T15:53:39.928311+00:00",
        "meta_object_name": "IRIDIUM 33 DEB",
        "meta_object_id": "1997-051CB",
        "meta_epoch": "2025-12-11T05:39:53.110368",
        "meta_mean_motion": 14.49584048,
        "meta_eccentricity": 0.00072323,
        "meta_inclination": 86.3922,
        "meta_ra_of_asc_node": 46.6724,
        "meta_arg_of_pericenter": 193.2302,
        "meta_mean_anomaly": 229.3577,
        "meta_ephemeris_type": 0,
        "meta_classification_type": "U",
        "meta_norad_cat_id": 33966,
        "meta_element_set_no": 999,
        "meta_rev_at_epoch": 88420,
        "meta_bstar": 0.00082309869,
        "meta_mean_motion_dot": 3.179e-05,
        "meta_mean_motion_ddot": 0,
        "tle_line1": "1 33966U 97051CB  25345.23603137  .00003179  00000+0  82310-3 0  9999",
        "tle_line2": "2 33966  86.3922  46.6724 0007232 193.2302 229.3577 14.49584048884206"
      },
      "geometry": {
        "type": "Point",
        "coordinates": [
          -138.5613155546018,
          54.373223868330754
        ]
      }
    },
    {
      "type": "Feature",
      "properties": {
        "norad_id": 34071,
        "name": "IRIDIUM 33 DEB",
        "group": "iridium-33-debris",
        "lat": -12.569107879510607,
        "lon": -160.88693714342529,
        "alt_km": 731.0259626080733,
        "timestamp": "2025-12-11T15:53:39.928322+00:00",
        "meta_object_name": "IRIDIUM 33 DEB",
        "meta_object_id": "1997-051CE",
        "meta_epoch": "2025-12-11T03:24:43.710048",
        "meta_mean_motion": 14.49452844,
        "meta_eccentricity": 0.00099027,
        "meta_inclination": 86.3458,
        "meta_ra_of_asc_node": 18.5226,
        "meta_arg_of_pericenter": 111.9344,
        "meta_mean_anomaly": 248.2914,
        "meta_ephemeris_type": 0,
        "meta_classification_type": "U",
        "meta_norad_cat_id": 34071,
        "meta_element_set_no": 999,
        "meta_rev_at_epoch": 88311,
        "meta_bstar": 0.00086512224,
        "meta_mean_motion_dot": 3.332e-05,
        "meta_mean_motion_ddot": 0,
        "tle_line1": "1 34071U 97051CE  25345.14217257  .00003332  00000+0  86512-3 0  9990",
        "tle_line2": "2 34071  86.3458  18.5226 0009902 111.9344 248.2914 14.49452844883114"
      },
      "geometry": {
        "type": "Point",
        "coordinates": [
          -160.88693714342529,
          -12.569107879510607
        ]
      }
    },
    {
      "type": "Feature",
      "properties": {
        "norad_id": 34077,
        "name": "IRIDIUM 33 DEB",
        "group": "iridium-33-debris",
        "lat": -24.933911730990566,
        "lon": 50.29808398832863,
        "alt_km": 680.5623201555327,
        "timestamp": "2025-12-11T15:53:39.928332+00:00",
        "meta_object_name": "IRIDIUM 33 DEB",
        "meta_object_id": "1997-051CL",
        "meta_epoch": "2025-12-11T06:28:42.934368",
        "meta_mean_motion": 14.64809818,
        "meta_eccentricity": 0.00103779,
        "meta_inclination": 86.386,
        "meta_ra_of_asc_node": 52.1546,
        "meta_arg_of_pericenter": 44.2381,
        "meta_mean_anomaly": 23.4753,
        "meta_ephemeris_type": 0,
        "meta_classification_type": "U",
        "meta_norad_cat_id": 34077,
        "meta_element_set_no": 999,
        "meta_rev_at_epoch": 88311,
        "meta_bstar": 0.0029385818,
        "meta_mean_motion_dot": 0.00015729,
        "meta_mean_motion_ddot": 0,
        "tle_line1": "1 34077U 97051CL  25345.26994137  .00015729  00000+0  29386-2 0  9996",
        "tle_line2": "2 34077  86.3860  52.1546 0010377  44.2381  23.4753 14.64809818883111"
      },
      "geometry": {
        "type": "Point",
        "coordinates": [
          50.29808398832863,
          -24.933911730990566
        ]
      }
    }
  ]
}